COMMENT,ORIGINATOR,NORAD_CAT_ID,OBJECT_NAME,OBJECT_TYPE,CLASSIFICATION_TYPE,INTLDES,EPOCH,EPOCH_MICROSECONDS,MEAN_MOTION,ECCENTRICITY,INCLINATION,RA_OF_ASC_NODE,ARG_OF_PERICENTER,MEAN_ANOMALY,EPHEMERIS_TYPE,ELEMENT_SET_NO,REV_AT_EPOCH,BSTAR,MEAN_MOTION_DOT,MEAN_MOTION_DDOT,FILE,TLE_LINE0,TLE_LINE1,TLE_LINE2,OBJECT_ID,OBJECT_NUMBER,SEMIMAJOR_AXIS,PERIOD,APOGEE,PERIGEE,DECAYED
"GENERATED VIA SPACETRACK.ORG API","18 SPCS","55095","SPACEBEE-162","PAYLOAD","U","23001CQ","2024-04-29 16:54:26","51616","15.41315414","0.0008112","97.4238","185.969","314.988","45.0709","0","999","7359","0.0011761","0.0004922","0","4302696","0 SPACEBEE-162","1 55095U 23001CQ  24120.70446819  .00049220  00000-0  11761-2 0  9993","2 55095  97.4238 185.9690 0008112 314.9880  45.0709 15.41315414 73590","2023-001CQ","55095","6820.363","93.427","447.761","436.695","0"
"GENERATED VIA SPACETRACK.ORG API","18 SPCS","55095","SPACEBEE-162","PAYLOAD","U","23001CQ","2024-04-30 11:36:15","316704","15.41386616","0.0008193","97.4239","186.761","311.3538","48.7003","0","999","7371","0.001103","0.00046247","0","4303298","0 SPACEBEE-162","1 55095U 23001CQ  24121.48351061  .00046247  00000-0  11030-2 0  9998","2 55095  97.4239 186.7610 0008193 311.3538  48.7003 15.41386616 73715","2023-001CQ","55095","6820.153","93.422","447.606","436.430","0"
"GENERATED VIA SPACETRACK.ORG API","18 SPCS","55095","SPACEBEE-162","PAYLOAD","U","23001CQ","2024-04-30 17:50:11","93280","15.414112","0.0008247","97.4239","187.0251","310.0984","49.9539","0","999","7375","0.0011414","0.0004791","0","4303548","0 SPACEBEE-162","1 55095U 23001CQ  24121.74318395  .00047910  00000-0  11414-2 0  9994","2 55095  97.4239 187.0251 0008247 310.0984  49.9539 15.41411200 73750","2023-001CQ","55095","6820.081","93.421","447.570","436.321","0"
"GENERATED VIA SPACETRACK.ORG API","18 SPCS","55095","SPACEBEE-162","PAYLOAD","U","23001CQ","2024-04-30 22:30:37","647072","15.41434633","0.0008206","97.4239","187.223","309.2084","50.8433","0","999","7378","0.001262","0.00053057","0","4303571","0 SPACEBEE-162","1 55095U 23001CQ  24121.93793573  .00053057  00000-0  12620-2 0  9999","2 55095  97.4239 187.2230 0008206 309.2084  50.8433 15.41434633 73787","2023-001CQ","55095","6820.011","93.419","447.473","436.280","0"
"GENERATED VIA SPACETRACK.ORG API","18 SPCS","55095","SPACEBEE-162","PAYLOAD","U","23001CQ","2024-05-01 10:58:27","400512","15.41494448","0.0008215","97.4241","187.7512","307.0671","52.9824","0","999","7386","0.0014794","0.00062411","0","4304151","0 SPACEBEE-162","1 55095U 23001CQ  24122.45726158  .00062411  00000-0  14794-2 0  9990","2 55095  97.4241 187.7512 0008215 307.0671  52.9824 15.41494448 73862","2023-001CQ","55095","6819.835","93.416","447.302","436.097","0"
"GENERATED VIA SPACETRACK.ORG API","18 SPCS","55095","SPACEBEE-162","PAYLOAD","U","23001CQ","2024-05-01 10:58:27","400512","15.41494448","0.0008215","97.4241","187.7512","307.0671","52.9824","0","999","7386","0.0014794","0.00062411","0","4304190","0 SPACEBEE-162","1 55095U 23001CQ  24122.45726158  .00062411  00000-0  14794-2 0  9990","2 55095  97.4241 187.7512 0008215 307.0671  52.9824 15.41494448 73862","2023-001CQ","55095","6819.835","93.416","447.302","436.097","0"
"GENERATED VIA SPACETRACK.ORG API","18 SPCS","55095","SPACEBEE-162","PAYLOAD","U","23001CQ","2024-05-01 21:52:47","201952","15.41531654","0.0008173","97.4241","188.2132","305.0358","55.0121","0","999","7393","0.0011953","0.00050393","0","4304452","0 SPACEBEE-162","1 55095U 23001CQ  24122.91165743  .00050393  00000-0  11953-2 0  9998","2 55095  97.4241 188.2132 0008173 305.0358  55.0121 15.41531654 73932","2023-001CQ","55095","6819.725","93.414","447.164","436.016","0"
"GENERATED VIA SPACETRACK.ORG API","18 SPCS","55095","SPACEBEE-162","PAYLOAD","U","23001CQ","2024-05-02 04:06:40","815936","15.41560955","0.0008174","97.424","188.4772","303.9161","56.1307","0","999","7397","0.0012426","0.00052455","0","4304801","0 SPACEBEE-162","1 55095U 23001CQ  24123.17130574  .00052455  00000-0  12426-2 0  9998","2 55095  97.4240 188.4772 0008174 303.9161  56.1307 15.41560955 73971","2023-001CQ","55095","6819.639","93.412","447.078","435.929","0"
"GENERATED VIA SPACETRACK.ORG API","18 SPCS","55095","SPACEBEE-162","PAYLOAD","U","23001CQ","2024-05-02 10:20:34","90368","15.41585211","0.0008168","97.424","188.7413","302.7057","57.3402","0","999","7401","0.0012197","0.00051522","0","4305180","0 SPACEBEE-162","1 55095U 23001CQ  24123.43095012  .00051522  00000-0  12197-2 0  9993","2 55095  97.4240 188.7413 0008168 302.7057  57.3402 15.41585211 74017","2023-001CQ","55095","6819.567","93.410","447.002","435.862","0"
"GENERATED VIA SPACETRACK.ORG API","18 SPCS","55095","SPACEBEE-162","PAYLOAD","U","23001CQ","2024-05-03 09:42:34","864416","15.41705204","0.0008193","97.424","189.7317","298.3833","61.6588","0","999","7416","0.0013112","0.00055645","0","4306116","0 SPACEBEE-162","1 55095U 23001CQ  24124.40457019  .00055645  00000-0  13112-2 0  9998","2 55095  97.4240 189.7317 0008193 298.3833  61.6588 15.41705204 74166","2023-001CQ","55095","6819.213","93.403","446.665","435.491","0"
"GENERATED VIA SPACETRACK.ORG API","18 SPCS","55095","SPACEBEE-162","PAYLOAD","U","23001CQ","2024-05-03 14:22:58","238688","15.41722445","0.0008225","97.4241","189.9299","297.777","62.2643","0","999","7419","0.00094455","0.00040003","0","4306126","0 SPACEBEE-162","1 55095U 23001CQ  24124.59928517  .00040003  00000-0  94455-3 0  9996","2 55095  97.4241 189.9299 0008225 297.7770  62.2643 15.41722445 74195","2023-001CQ","55095","6819.163","93.402","446.636","435.419","0"
"GENERATED VIA SPACETRACK.ORG API","18 SPCS","55095","SPACEBEE-162","PAYLOAD","U","23001CQ","2024-05-03 22:10:16","689792","15.41753676","0.000822","97.4243","190.2596","295.9607","64.0793","0","999","7424","0.00093331","0.00039565","0","4306422","0 SPACEBEE-162","1 55095U 23001CQ  24124.92380428  .00039565  00000-0  93331-3 0  9999","2 55095  97.4243 190.2596 0008220 295.9607  64.0793 15.41753676 74248","2023-001CQ","55095","6819.070","93.400","446.541","435.330","0"
"GENERATED VIA SPACETRACK.ORG API","18 SPCS","55095","SPACEBEE-162","PAYLOAD","U","23001CQ","2024-05-04 02:50:39","531840","15.41774729","0.0008223","97.4244","190.4576","294.7938","65.2453","0","999","7427","0.0011001","0.00046727","0","4307108","0 SPACEBEE-162","1 55095U 23001CQ  24125.11851310  .00046727  00000-0  11001-2 0  9995","2 55095  97.4244 190.4576 0008223 294.7938  65.2453 15.41774729 74277","2023-001CQ","55095","6819.008","93.399","446.481","435.266","0"
"GENERATED VIA SPACETRACK.ORG API","18 SPCS","55095","SPACEBEE-162","PAYLOAD","U","23001CQ","2024-05-05 03:45:58","197312","15.41867707","0.0008247","97.4241","191.5141","290.632","69.4042","0","999","7443","0.0013146","0.00056095","0","4307695","0 SPACEBEE-162","1 55095U 23001CQ  24126.15692358  .00056095  00000-0  13146-2 0  9996","2 55095  97.4241 191.5141 0008247 290.6320  69.4042 15.41867707 74437","2023-001CQ","55095","6818.734","93.393","446.223","434.976","0"
"GENERATED VIA SPACETRACK.ORG API","18 SPCS","55095","SPACEBEE-162","PAYLOAD","U","23001CQ","2024-05-05 09:59:46","976352","15.41892066","0.0008254","97.4241","191.7785","289.9328","70.103","0","999","7447","0.0011843","0.00050532","0","4307968","0 SPACEBEE-162","1 55095U 23001CQ  24126.41651593  .00050532  00000-0  11843-2 0  9993","2 55095  97.4241 191.7785 0008254 289.9328  70.1030 15.41892066 74476","2023-001CQ","55095","6818.662","93.392","446.156","434.899","0"
"GENERATED VIA SPACETRACK.ORG API","18 SPCS","55095","SPACEBEE-162","PAYLOAD","U","23001CQ","2024-05-05 14:40:08","384160","15.41908313","0.0008319","97.424","191.9767","289.3264","70.7083","0","999","7450","0.0011212","0.00047845","0","4308229","0 SPACEBEE-162","1 55095U 23001CQ  24126.61120815  .00047845  00000-0  11212-2 0  9996","2 55095  97.4240 191.9767 0008319 289.3264  70.7083 15.41908313 74503","2023-001CQ","55095","6818.615","93.391","446.152","434.807","0"
"GENERATED VIA SPACETRACK.ORG API","18 SPCS","55095","SPACEBEE-162","PAYLOAD","U","23001CQ","2024-05-05 22:27:23","569344","15.41941021","0.0008339","97.424","192.3068","288.085","71.9488","0","999","7455","0.0012177","0.00052055","0","4308260","0 SPACEBEE-162","1 55095U 23001CQ  24126.93568946  .00052055  00000-0  12177-2 0  9992","2 55095  97.4240 192.3068 0008339 288.0850  71.9488 15.41941021 74551","2023-001CQ","55095","6818.518","93.389","446.069","434.697","0"
"GENERATED VIA SPACETRACK.ORG API","18 SPCS","55095","SPACEBEE-162","PAYLOAD","U","23001CQ","2024-05-06 03:07:44","366304","15.41964447","0.0008371","97.424","192.505","287.2912","72.7418","0","999","7458","0.0013056","0.00055891","0","4309203","0 SPACEBEE-162","1 55095U 23001CQ  24127.13037461  .00055891  00000-0  13056-2 0  9996","2 55095  97.4240 192.5050 0008371 287.2912  72.7418 15.41964447 74582","2023-001CQ","55095","6818.449","93.387","446.022","434.606","0"
"GENERATED VIA SPACETRACK.ORG API","18 SPCS","55095","SPACEBEE-162","PAYLOAD","U","23001CQ","2024-05-06 17:08:45","249504","15.4203449","0.0008357","97.4241","193.0992","285.0662","74.966","0","999","7467","0.001419","0.00060934","0","4309199","0 SPACEBEE-162","1 55095U 23001CQ  24127.71441261  .00060934  00000-0  14190-2 0  9991","2 55095  97.4241 193.0992 0008357 285.0662  74.9660 15.42034490 74676","2023-001CQ","55095","6818.243","93.383","445.806","434.410","0"
"GENERATED VIA SPACETRACK.ORG API","18 SPCS","55095","SPACEBEE-162","PAYLOAD","U","23001CQ","2024-05-06 21:49:04","995840","15.42058471","0.0008357","97.4237","193.2972","283.7221","76.3095","0","999","7470","0.0014502","0.00062336","0","4309210","0 SPACEBEE-162","1 55095U 23001CQ  24127.90908560  .00062336  00000-0  14502-2 0  9997","2 55095  97.4237 193.2972 0008357 283.7221  76.3095 15.42058471 74704","2023-001CQ","55095","6818.172","93.382","445.735","434.339","0"
